start=new Date('2022-03-10T00:00:00.000Z').valueOf();
sats=[{"TLE_LINE2":"2 48395  53.0562  59.5588 0001785  54.5867 305.5289 15.06387479 48349","MEAN_MOTION":"15.06387479","MEAN_MOTION_DOT":"0.00001096","SITE":"AFETR","ELEMENT_SET_NO":"999","RA_OF_ASC_NODE":"59.5588","TLE_LINE1":"1 48395U 21038AU  22068.85430012  .00001096  00000-0  92475-4 0  9991","ECCENTRICITY":"0.00017850","FILE":"3352875","RCS_SIZE":"LARGE","GP_ID":"198360270","MEAN_ELEMENT_THEORY":"SGP4","CENTER_NAME":"EARTH","OBJECT_ID":"2021-038AU","CLASSIFICATION_TYPE":"U","NORAD_CAT_ID":"48395","ARG_OF_PERICENTER":"54.5867","MEAN_MOTION_DDOT":"0.0000000000000","TIME_SYSTEM":"UTC","COUNTRY_CODE":"US","EPOCH":"2022-03-09T20:30:11.530368","REF_FRAME":"TEME","PERIAPSIS":"546.016","BSTAR":"0.00009247500000","REV_AT_EPOCH":"4834","LAUNCH_DATE":"2021-05-04","OBJECT_TYPE":"PAYLOAD","APOAPSIS":"548.488","DECAY_DATE":null,"PERIOD":"95.593","OBJECT_NAME":"STARLINK-2574","SEMIMAJOR_AXIS":"6925.387","INCLINATION":"53.0562","EPHEMERIS_TYPE":"0","MEAN_ANOMALY":"305.5289"},{"LAUNCH_DATE":"2021-05-04","OBJECT_TYPE":"PAYLOAD","APOAPSIS":"548.584","PERIOD":"95.592","DECAY_DATE":null,"OBJECT_NAME":"STARLINK-2575","SEMIMAJOR_AXIS":"6925.363","MEAN_ANOMALY":"306.7565","EPHEMERIS_TYPE":"0","INCLINATION":"53.0581","CLASSIFICATION_TYPE":"U","NORAD_CAT_ID":"48396","ARG_OF_PERICENTER":"53.3603","TIME_SYSTEM":"UTC","MEAN_MOTION_DDOT":"0.0000000000000","COUNTRY_CODE":"US","REF_FRAME":"TEME","EPOCH":"2022-03-09T09:38:41.962848","PERIAPSIS":"545.872","REV_AT_EPOCH":"4827","BSTAR":"0.00002301400000","ELEMENT_SET_NO":"999","ECCENTRICITY":"0.00019580","TLE_LINE1":"1 48396U 21038AV  22068.40187457  .00000061  00000-0  23014-4 0  9999","RA_OF_ASC_NODE":"61.5992","FILE":"3352425","RCS_SIZE":"LARGE","OBJECT_ID":"2021-038AV","GP_ID":"198324447","CENTER_NAME":"EARTH","MEAN_ELEMENT_THEORY":"SGP4","TLE_LINE2":"2 48396  53.0581  61.5992 0001958  53.3603 306.7565 15.06395304 48278","MEAN_MOTION":"15.06395304","MEAN_MOTION_DOT":"0.00000061","SITE":"AFETR"},{"ECCENTRICITY":"0.00016250","TLE_LINE1":"1 48397U 21038AW  22068.66357423 -.00003942  00000-0 -24603-3 0  9997","RA_OF_ASC_NODE":"60.4238","FILE":"3352875","ELEMENT_SET_NO":"999","OBJECT_ID":"2021-038AW","MEAN_ELEMENT_THEORY":"SGP4","GP_ID":"198359269","CENTER_NAME":"EARTH","RCS_SIZE":"LARGE","MEAN_MOTION":"15.06379046","TLE_LINE2":"2 48397  53.0546  60.4238 0001625  59.0587 301.0561 15.06379046 48310","SITE":"AFETR","MEAN_MOTION_DOT":"-0.00003942","DECAY_DATE":null,"PERIOD":"95.593","OBJECT_NAME":"STARLINK-2590","LAUNCH_DATE":"2021-05-04","APOAPSIS":"548.403","OBJECT_TYPE":"PAYLOAD","MEAN_ANOMALY":"301.0561","EPHEMERIS_TYPE":"0","INCLINATION":"53.0546","SEMIMAJOR_AXIS":"6925.413","NORAD_CAT_ID":"48397","ARG_OF_PERICENTER":"59.0587","CLASSIFICATION_TYPE":"U","PERIAPSIS":"546.152","REV_AT_EPOCH":"4831","BSTAR":"-0.00024603000000","TIME_SYSTEM":"UTC","MEAN_MOTION_DDOT":"0.0000000000000","EPOCH":"2022-03-09T15:55:32.813472","COUNTRY_CODE":"US","REF_FRAME":"TEME"},{"APOAPSIS":"548.387","OBJECT_TYPE":"PAYLOAD","LAUNCH_DATE":"2021-05-04","DECAY_DATE":null,"OBJECT_NAME":"STARLINK-2588","PERIOD":"95.593","SEMIMAJOR_AXIS":"6925.379","MEAN_ANOMALY":"310.0588","EPHEMERIS_TYPE":"0","INCLINATION":"53.0565","CLASSIFICATION_TYPE":"U","ARG_OF_PERICENTER":"50.0546","NORAD_CAT_ID":"48398","EPOCH":"2022-03-09T09:28:05.079936","COUNTRY_CODE":"US","REF_FRAME":"TEME","TIME_SYSTEM":"UTC","MEAN_MOTION_DDOT":"0.0000000000000","REV_AT_EPOCH":"4827","BSTAR":"0.00000496830000","PERIAPSIS":"546.100","ELEMENT_SET_NO":"999","FILE":"3352425","ECCENTRICITY":"0.00016510","TLE_LINE1":"1 48398U 21038AX  22068.39450324 -.00000208  00000-0  49683-5 0  9990","RA_OF_ASC_NODE":"61.6311","RCS_SIZE":"LARGE","OBJECT_ID":"2021-038AX","MEAN_ELEMENT_THEORY":"SGP4","GP_ID":"198324949","CENTER_NAME":"EARTH","TLE_LINE2":"2 48398  53.0565  61.6311 0001651  50.0546 310.0588 15.06390176 48273","MEAN_MOTION":"15.06390176","MEAN_MOTION_DOT":"-0.00000208","SITE":"AFETR"},{"NORAD_CAT_ID":"48399","ARG_OF_PERICENTER":"53.3367","CLASSIFICATION_TYPE":"U","PERIAPSIS":"546.020","REV_AT_EPOCH":"4832","BSTAR":"0.00016785000000","TIME_SYSTEM":"UTC","MEAN_MOTION_DDOT":"0.0000000000000","COUNTRY_CODE":"US","EPOCH":"2022-03-09T18:56:00.117600","REF_FRAME":"TEME","DECAY_DATE":null,"OBJECT_NAME":"STARLINK-2587","PERIOD":"95.593","LAUNCH_DATE":"2021-05-04","OBJECT_TYPE":"PAYLOAD","APOAPSIS":"548.491","MEAN_ANOMALY":"306.7785","EPHEMERIS_TYPE":"0","INCLINATION":"53.0553","SEMIMAJOR_AXIS":"6925.391","MEAN_MOTION":"15.06386311","TLE_LINE2":"2 48399  53.0553  59.8635 0001784  53.3367 306.7785 15.06386311 48326","SITE":"AFETR","MEAN_MOTION_DOT":"0.00002218","TLE_LINE1":"1 48399U 21038AY  22068.78889025  .00002218  00000-0  16785-3 0  9995","ECCENTRICITY":"0.00017840","RA_OF_ASC_NODE":"59.8635","FILE":"3352875","ELEMENT_SET_NO":"999","OBJECT_ID":"2021-038AY","GP_ID":"198360771","CENTER_NAME":"EARTH","MEAN_ELEMENT_THEORY":"SGP4","RCS_SIZE":"LARGE"},{"SITE":"AFETR","MEAN_MOTION_DOT":"0.00002515","MEAN_MOTION":"15.06387046","TLE_LINE2":"2 48400  53.0560  59.5906 0001988  53.7248 306.3924 15.06387046 47127","OBJECT_ID":"2021-038AZ","GP_ID":"198361022","MEAN_ELEMENT_THEORY":"SGP4","CENTER_NAME":"EARTH","RCS_SIZE":"LARGE","FILE":"3352875","ECCENTRICITY":"0.00019880","TLE_LINE1":"1 48400U 21038AZ  22068.85155828  .00002515  00000-0  18774-3 0  9993","RA_OF_ASC_NODE":"59.5906","ELEMENT_SET_NO":"999","REV_AT_EPOCH":"4712","BSTAR":"0.00018774000000","PERIAPSIS":"545.876","COUNTRY_CODE":"US","REF_FRAME":"TEME","EPOCH":"2022-03-09T20:26:14.635392","TIME_SYSTEM":"UTC","MEAN_MOTION_DDOT":"0.0000000000000","ARG_OF_PERICENTER":"53.7248","NORAD_CAT_ID":"48400","CLASSIFICATION_TYPE":"U","MEAN_ANOMALY":"306.3924","INCLINATION":"53.0560","EPHEMERIS_TYPE":"0","SEMIMAJOR_AXIS":"6925.388","DECAY_DATE":null,"OBJECT_NAME":"STARLINK-2576","PERIOD":"95.593","APOAPSIS":"548.630","OBJECT_TYPE":"PAYLOAD","LAUNCH_DATE":"2021-05-04"},{"RCS_SIZE":"LARGE","MEAN_ELEMENT_THEORY":"SGP4","GP_ID":"198359770","CENTER_NAME":"EARTH","OBJECT_ID":"2021-038BA","ELEMENT_SET_NO":"999","RA_OF_ASC_NODE":"60.3135","TLE_LINE1":"1 48401U 21038BA  22068.68843294  .00003251  00000-0  23721-3 0  9992","ECCENTRICITY":"0.00018950","FILE":"3352875","MEAN_MOTION_DOT":"0.00003251","SITE":"AFETR","TLE_LINE2":"2 48401  53.0567  60.3135 0001895  57.4164 302.7008 15.06371285 47091","MEAN_MOTION":"15.06371285","SEMIMAJOR_AXIS":"6925.437","INCLINATION":"53.0567","EPHEMERIS_TYPE":"0","MEAN_ANOMALY":"302.7008","LAUNCH_DATE":"2021-05-04","APOAPSIS":"548.614","OBJECT_TYPE":"PAYLOAD","OBJECT_NAME":"STARLINK-2571","DECAY_DATE":null,"PERIOD":"95.594","MEAN_MOTION_DDOT":"0.0000000000000","TIME_SYSTEM":"UTC","REF_FRAME":"TEME","COUNTRY_CODE":"US","EPOCH":"2022-03-09T16:31:20.606016","PERIAPSIS":"545.989","BSTAR":"0.00023721000000","REV_AT_EPOCH":"4709","CLASSIFICATION_TYPE":"U","NORAD_CAT_ID":"48401","ARG_OF_PERICENTER":"57.4164"},{"COUNTRY_CODE":"US","EPOCH":"2022-03-09T06:01:05.169792","REF_FRAME":"TEME","TIME_SYSTEM":"UTC","MEAN_MOTION_DDOT":"0.0000000000000","REV_AT_EPOCH":"4703","BSTAR":"-0.00000474460000","PERIAPSIS":"546.138","CLASSIFICATION_TYPE":"U","ARG_OF_PERICENTER":"51.3932","NORAD_CAT_ID":"48402","SEMIMAJOR_AXIS":"6925.386","MEAN_ANOMALY":"308.7201","EPHEMERIS_TYPE":"0","INCLINATION":"53.0548","APOAPSIS":"548.363","OBJECT_TYPE":"PAYLOAD","LAUNCH_DATE":"2021-05-04","OBJECT_NAME":"STARLINK-2560","DECAY_DATE":null,"PERIOD":"95.593","MEAN_MOTION_DOT":"-0.00000352","SITE":"AFETR","TLE_LINE2":"2 48402  53.0548  62.2785 0001606  51.3932 308.7201 15.06387943 47032","MEAN_MOTION":"15.06387943","RCS_SIZE":"LARGE","OBJECT_ID":"2021-038BB","GP_ID":"198325449","MEAN_ELEMENT_THEORY":"SGP4","CENTER_NAME":"EARTH","ELEMENT_SET_NO":"999","FILE":"3352425","TLE_LINE1":"1 48402U 21038BB  22068.25075428 -.00000352  00000-0 -47446-5 0  9995","ECCENTRICITY":"0.00016060","RA_OF_ASC_NODE":"62.2785"},{"TLE_LINE1":"1 48403U 21038BC  22068.71148876  .00003308  00000-0  24088-3 0  9992","ECCENTRICITY":"0.00016630","RA_OF_ASC_NODE":"60.1980","FILE":"3352875","ELEMENT_SET_NO":"999","OBJECT_ID":"2021-038BC","GP_ID":"198360271","MEAN_ELEMENT_THEORY":"SGP4","CENTER_NAME":"EARTH","RCS_SIZE":"LARGE","MEAN_MOTION":"15.06398767","TLE_LINE2":"2 48403  53.0553  60.1980 0001663  58.9727 301.1426 15.06398767 47101","SITE":"AFETR","MEAN_MOTION_DOT":"0.00003308","PERIOD":"95.592","DECAY_DATE":null,"OBJECT_NAME":"STARLINK-2561","LAUNCH_DATE":"2021-05-04","APOAPSIS":"548.369","OBJECT_TYPE":"PAYLOAD","MEAN_ANOMALY":"301.1426","INCLINATION":"53.0553","EPHEMERIS_TYPE":"0","SEMIMAJOR_AXIS":"6925.352","NORAD_CAT_ID":"48403","ARG_OF_PERICENTER":"58.9727","CLASSIFICATION_TYPE":"U","PERIAPSIS":"546.066","REV_AT_EPOCH":"4710","BSTAR":"0.00024088000000","TIME_SYSTEM":"UTC","MEAN_MOTION_DDOT":"0.0000000000000","EPOCH":"2022-03-09T17:04:32.628864","COUNTRY_CODE":"US","REF_FRAME":"TEME"},{"NORAD_CAT_ID":"48404","ARG_OF_PERICENTER":"58.3129","CLASSIFICATION_TYPE":"U","PERIAPSIS":"546.012","BSTAR":"0.00029107000000","REV_AT_EPOCH":"4710","MEAN_MOTION_DDOT":"0.0000000000000","TIME_SYSTEM":"UTC","EPOCH":"2022-03-09T16:59:15.196992","COUNTRY_CODE":"US","REF_FRAME":"TEME","PERIOD":"95.591","DECAY_DATE":null,"OBJECT_NAME":"STARLINK-2593","LAUNCH_DATE":"2021-05-04","APOAPSIS":"548.344","OBJECT_TYPE":"PAYLOAD","INCLINATION":"53.0542","EPHEMERIS_TYPE":"0","MEAN_ANOMALY":"301.8024","SEMIMAJOR_AXIS":"6925.313","MEAN_MOTION":"15.06411667","TLE_LINE2":"2 48404  53.0542  60.2262 0001684  58.3129 301.8024 15.06411667 47103","SITE":"AFETR","MEAN_MOTION_DOT":"0.00004058","RA_OF_ASC_NODE":"60.2262","TLE_LINE1":"1 48404U 21038BD  22068.70781478  .00004058  00000-0  29107-3 0  9993","ECCENTRICITY":"0.00016840","FILE":"3352875","ELEMENT_SET_NO":"999","CENTER_NAME":"EARTH","GP_ID":"198360522","MEAN_ELEMENT_THEORY":"SGP4","OBJECT_ID":"2021-038BD","RCS_SIZE":"LARGE"}];
